NORAD_CAT_ID,OBJECT_NAME,OBJECT_TYPE,EPOCH,MEAN_MOTION,ECCENTRICITY,INCLINATION,RA_OF_ASC_NODE,ARG_OF_PERICENTER,MEAN_ANOMALY,BSTAR,MEAN_MOTION_DOT,MEAN_MOTION_DDOT,TLE_LINE0,TLE_LINE1,TLE_LINE2,SEMIMAJOR_AXIS,PERIOD,APOGEE,PERIGEE,DECAYED
51881.0,STARLINK-3504,PAYLOAD,2024-05-24 22:01:39,15.08840349,0.0001616,53.2174,54.0079,115.0102,245.1058,2.7957e-05,1.57e-06,0.0,0 STARLINK-3504,1 51881U 22022AF  24145.91782210  .00000157  00000-0  27957-4 0  9994,2 51881  53.2174  54.0079 0001616 115.0102 245.1058 15.08840349124606,6917.879,95.438,540.862,538.626,0.0
51881.0,STARLINK-3504,PAYLOAD,2024-05-25 10:44:45,15.08830671,0.0001278,53.217,51.6359,123.8432,236.2682,-0.00018052,-3.159e-05,0.0,0 STARLINK-3504,1 51881U 22022AF  24146.44774705 -.00003159  00000-0 -18052-3 0  9995,2 51881  53.2170  51.6359 0001278 123.8432 236.2682 15.08830671124682,6917.909,95.438,540.658,538.89,0.0
51881.0,STARLINK-3504,PAYLOAD,2024-05-26 01:03:13,15.08837397,0.0001302,53.2174,48.9575,103.2851,256.8287,1.2376e-05,-9.1e-07,0.0,0 STARLINK-3504,1 51881U 22022AF  24147.04390705 -.00000091  00000-0  12376-4 0  9991,2 51881  53.2174  48.9575 0001302 103.2851 256.8287 15.08837397124771,6917.888,95.438,540.654,538.853,0.0
51881.0,STARLINK-3504,PAYLOAD,2024-05-26 23:18:37,15.08849217,0.0001152,53.2171,44.7973,98.7843,261.328,0.00016594,2.355e-05,0.0,0 STARLINK-3504,1 51881U 22022AF  24147.97126512  .00002355  00000-0  16594-3 0  9995,2 51881  53.2171  44.7973 0001152  98.7843 261.3280 15.08849217124910,6917.852,95.437,540.514,538.92,0.0
51881.0,STARLINK-3504,PAYLOAD,2024-05-27 16:47:52,15.08843228,0.0001448,53.2178,41.5291,79.1082,281.0074,0.00013804,1.91e-05,0.0,0 STARLINK-3504,1 51881U 22022AF  24148.69991058  .00001910  00000-0  13804-3 0  9997,2 51881  53.2178  41.5291 0001448  79.1082 281.0074 15.08843228125020,6917.871,95.437,540.737,538.734,0.0
51881.0,STARLINK-3504,PAYLOAD,2024-05-27 23:09:24,15.08841327,0.0001341,53.2184,40.3383,86.5527,273.5619,0.00011389,1.525e-05,0.0,0 STARLINK-3504,1 51881U 22022AF  24148.96487132  .00001525  00000-0  11389-3 0  9998,2 51881  53.2184  40.3383 0001341  86.5527 273.5619 15.08841327125067,6917.876,95.437,540.669,538.814,0.0
51881.0,STARLINK-3504,PAYLOAD,2024-05-28 10:17:06,15.08847799,0.0001348,53.2176,38.2559,84.1646,275.95,0.00012888,1.764e-05,0.0,0 STARLINK-3504,1 51881U 22022AF  24149.42854541  .00001764  00000-0  12888-3 0  9992,2 51881  53.2176  38.2559 0001348  84.1646 275.9500 15.08847799125134,6917.857,95.437,540.654,538.789,0.0
51881.0,STARLINK-3504,PAYLOAD,2024-05-28 19:49:26,15.08810657,0.0001712,53.2177,36.4705,89.7315,270.3873,0.00053953,8.302e-05,0.0,0 STARLINK-3504,1 51881U 22022AF  24149.82599890  .00008302  00000-0  53953-3 0  9992,2 51881  53.2177  36.4705 0001712  89.7315 270.3873 15.08810657125198,6917.97,95.439,541.019,538.651,0.0
51881.0,STARLINK-3504,PAYLOAD,2024-05-28 21:24:49,15.08809611,0.0001757,53.2182,36.1731,93.5189,266.6004,0.00056148,8.652e-05,0.0,0 STARLINK-3504,1 51881U 22022AF  24149.89223943  .00008652  00000-0  56148-3 0  9999,2 51881  53.2182  36.1731 0001757  93.5189 266.6004 15.08809611125205,6917.973,95.439,541.054,538.623,0.0
51881.0,STARLINK-3504,PAYLOAD,2024-05-28 23:00:13,15.08794301,0.0001787,53.2186,35.8761,93.7556,266.3641,0.00080969,0.00012606,0.0,0 STARLINK-3504,1 51881U 22022AF  24149.95848450  .00012606  00000-0  80969-3 0  9994,2 51881  53.2186  35.8761 0001787  93.7556 266.3641 15.08794301125215,6918.02,95.44,541.121,538.649,0.0
51881.0,STARLINK-3504,PAYLOAD,2024-05-29 21:15:35,15.08843317,0.0001505,53.2191,31.7123,96.9969,263.1194,5.0155e-05,5.1e-06,0.0,0 STARLINK-3504,1 51881U 22022AF  24150.88582747  .00000510  00000-0  50155-4 0  9998,2 51881  53.2191  31.7123 0001505  96.9969 263.1194 15.08843317125354,6917.87,95.437,540.776,538.694,0.0
51881.0,STARLINK-3504,PAYLOAD,2024-05-29 22:50:58,15.08843748,0.0001506,53.2192,31.415,96.425,263.6914,4.7882e-05,4.74e-06,0.0,0 STARLINK-3504,1 51881U 22022AF  24150.95206678  .00000474  00000-0  47882-4 0  9994,2 51881  53.2192  31.4150 0001506  96.4250 263.6914 15.08843748125365,6917.869,95.437,540.776,538.692,0.0
51881.0,STARLINK-3504,PAYLOAD,2024-05-30 02:01:44,15.08844924,0.0001482,53.219,30.8198,95.0939,265.0222,5.1389e-05,5.3e-06,0.0,0 STARLINK-3504,1 51881U 22022AF  24151.08454546  .00000530  00000-0  51389-4 0  9998,2 51881  53.2190  30.8198 0001482  95.0939 265.0222 15.08844924125387,6917.865,95.437,540.756,538.705,0.0
51881.0,STARLINK-3504,PAYLOAD,2024-05-30 21:06:22,15.08841924,0.0001483,53.219,27.25,98.4622,261.6538,5.8173e-05,6.38e-06,0.0,0 STARLINK-3504,1 51881U 22022AF  24151.87942704  .00000638  00000-0  58173-4 0  9990,2 51881  53.2190  27.2500 0001483  98.4622 261.6538 15.08841924125504,6917.875,95.437,540.765,538.714,0.0
51881.0,STARLINK-3504,PAYLOAD,2024-05-31 14:35:37,15.08841198,0.0001469,53.2192,23.9792,101.3315,258.7842,6.5701e-05,7.58e-06,0.0,0 STARLINK-3504,1 51881U 22022AF  24152.60806721  .00000758  00000-0  65701-4 0  9998,2 51881  53.2192  23.9792 0001469 101.3315 258.7842 15.08841198125619,6917.877,95.437,540.758,538.725,0.0
51881.0,STARLINK-3504,PAYLOAD,2024-05-31 20:57:09,15.08842261,0.0001285,53.2186,22.7945,94.3536,265.7603,3.5116e-05,2.71e-06,0.0,0 STARLINK-3504,1 51881U 22022AF  24152.87302683  .00000271  00000-0  35116-4 0  9992,2 51881  53.2186  22.7945 0001285  94.3536 265.7603 15.08842261125650,6917.873,95.437,540.627,538.85,0.0
51881.0,STARLINK-3504,PAYLOAD,2024-05-31 22:32:32,15.08843628,0.0001296,53.2184,22.4971,94.485,265.629,4.7083e-05,4.62e-06,0.0,0 STARLINK-3504,1 51881U 22022AF  24152.93926557  .00000462  00000-0  47083-4 0  9999,2 51881  53.2184  22.4971 0001296  94.4850 265.6290 15.08843628125666,6917.869,95.437,540.631,538.838,0.0
51881.0,STARLINK-3504,PAYLOAD,2024-06-01 08:04:51,15.08837491,0.0001249,53.2179,20.7125,92.0376,268.0759,3.077e-05,2.02e-06,0.0,0 STARLINK-3504,1 51881U 22022AF  24153.33670992  .00000202  00000-0  30770-4 0  9990,2 51881  53.2179  20.7125 0001249  92.0376 268.0759 15.08837491125722,6917.888,95.438,540.617,538.889,0.0
51881.0,STARLINK-3504,PAYLOAD,2024-06-01 20:47:57,15.08834611,0.000132,53.2184,18.334,92.2752,267.8391,-1.5326e-05,-5.32e-06,0.0,0 STARLINK-3504,1 51881U 22022AF  24153.86663509 -.00000532  00000-0 -15326-4 0  9992,2 51881  53.2184  18.3340 0001320  92.2752 267.8391 15.08834611125809,6917.897,95.438,540.675,538.849,0.0
51881.0,STARLINK-3504,PAYLOAD,2024-06-02 07:55:38,15.0884264,0.0001402,53.2198,16.2498,81.3091,278.806,-3.4706e-05,-8.4e-06,0.0,0 STARLINK-3504,1 51881U 22022AF  24154.33031088 -.00000840  00000-0 -34706-4 0  9991,2 51881  53.2198  16.2498 0001402  81.3091 278.8060 15.08842640125874,6917.872,95.437,540.707,538.767,0.0
51881.0,STARLINK-3504,PAYLOAD,2024-06-03 07:46:26,15.08842244,0.0001598,53.2212,11.7895,84.0918,276.0256,9.7472e-06,-1.33e-06,0.0,0 STARLINK-3504,1 51881U 22022AF  24155.32391238 -.00000133  00000-0  97472-5 0  9991,2 51881  53.2212  11.7895 0001598  84.0918 276.0256 15.08842244126021,6917.874,95.437,540.844,538.633,0.0
51881.0,STARLINK-3504,PAYLOAD,2024-06-03 20:29:30,15.08841758,0.0001379,53.2195,9.4105,84.0813,276.0336,0.00014416,2.007e-05,0.0,0 STARLINK-3504,1 51881U 22022AF  24155.85382906  .00002007  00000-0  14416-3 0  9997,2 51881  53.2195   9.4105 0001379  84.0813 276.0336 15.08841758126107,6917.875,95.437,540.694,538.786,0.0
51881.0,STARLINK-3504,PAYLOAD,2024-06-04 07:37:12,15.08843745,0.0001284,53.2179,7.3304,88.3458,271.7681,8.5313e-05,1.07e-05,0.0,0 STARLINK-3504,1 51881U 22022AF  24156.31750879  .00001070  00000-0  85313-4 0  9991,2 51881  53.2179   7.3304 0001284  88.3458 271.7681 15.08843745126174,6917.869,95.437,540.622,538.846,0.0
51881.0,STARLINK-3504,PAYLOAD,2024-06-04 20:20:17,15.08847936,0.0001861,53.2096,4.9492,91.3318,268.7887,0.00010963,1.457e-05,0.0,0 STARLINK-3504,1 51881U 22022AF  24156.84742557  .00001457  00000-0  10963-3 0  9990,2 51881  53.2096   4.9492 0001861  91.3318 268.7887 15.08847936126252,6917.856,95.437,541.009,538.434,0.0
51881.0,STARLINK-3504,PAYLOAD,2024-06-06 23:12:38,15.0883489,0.0001384,53.2178,355.433,92.779,267.3361,-5.6618e-08,-2.89e-06,0.0,0 STARLINK-3504,1 51881U 22022AF  24158.96711678 -.00000289  00000-0 -56618-7 0  9990,2 51881  53.2178 355.4330 0001384  92.7790 267.3361 15.08834890126579,6917.896,95.438,540.718,538.804,0.0
51881.0,STARLINK-3504,PAYLOAD,2024-06-07 13:31:07,15.08836059,0.0001358,53.2185,352.7566,93.3896,266.7252,-1.6718e-06,-3.15e-06,0.0,0 STARLINK-3504,1 51881U 22022AF  24159.56327699 -.00000315  00000-0 -16718-5 0  9998,2 51881  53.2185 352.7566 0001358  93.3896 266.7252 15.08836059126664,6917.892,95.438,540.697,538.818,0.0
51881.0,STARLINK-3504,PAYLOAD,2024-06-07 19:52:38,15.08847307,0.0001856,53.2199,351.5692,91.8998,268.2206,8.3663e-05,1.044e-05,0.0,0 STARLINK-3504,1 51881U 22022AF  24159.82822561  .00001044  00000-0  83663-4 0  9995,2 51881  53.2199 351.5692 0001856  91.8998 268.2206 15.08847307126704,6917.858,95.437,541.007,538.439,0.0
51881.0,STARLINK-3504,PAYLOAD,2024-06-08 05:24:57,15.08842437,0.0001009,53.2216,349.7836,69.0859,291.0241,0.00017351,2.475e-05,0.0,0 STARLINK-3504,1 51881U 22022AF  24160.22566811  .00002475  00000-0  17351-3 0  9993,2 51881  53.2216 349.7836 0001009  69.0859 291.0241 15.08842437126764,6917.873,95.437,540.436,539.04,0.0
51881.0,STARLINK-3504,PAYLOAD,2024-06-09 05:15:45,15.0883223,0.0001156,53.2201,345.3245,78.1272,281.9849,6.2387e-05,7.05e-06,0.0,0 STARLINK-3504,1 51881U 22022AF  24161.21928196  .00000705  00000-0  62387-4 0  9995,2 51881  53.2201 345.3245 0001156  78.1272 281.9849 15.08832230126916,6917.904,95.438,540.569,538.969,0.0
51881.0,STARLINK-3504,PAYLOAD,2024-06-09 11:37:18,15.08833949,0.0002014,53.216,344.1354,78.6811,281.4407,7.7014e-05,9.38e-06,0.0,0 STARLINK-3504,1 51881U 22022AF  24161.48424541  .00000938  00000-0  77014-4 0  9990,2 51881  53.2160 344.1354 0002014  78.6811 281.4407 15.08833949126953,6917.899,95.438,541.157,538.371,0.0
